GLOBALSTAR M057         
1 25943U 99058A   24228.90284605 -.00000080  00000+0  11465-3 0  9994
2 25943  51.9975 134.5769 0002679  93.8347 266.2808 12.24791414129520
GLOBALSTAR M059         
1 25944U 99058B   24228.66173736 -.00000096  00000+0 -11721-3 0  9993
2 25944  52.0037 313.7109 0000721 102.8154  54.0476 11.99964616537360
GLOBALSTAR M056         
1 25945U 99058C   24228.97144675 -.00000099  00000+0 -13592-3 0  9999
2 25945  51.9988 322.6690 0000286 242.9398 288.3066 12.04775297125834
GLOBALSTAR M031         
1 25946U 99058D   24228.74574032 -.00000080  00000+0  10872-3 0  9996
2 25946  51.9936 233.8967 0001418 276.2707 255.3516 12.16014449127621
GLOBALSTAR M039         
1 25961U 99062A   24228.44729274 -.00000083  00000+0  11468-3 0  9990
2 25961  51.9839 119.9221 0003380  35.4668 324.6423 12.62299547141637
GLOBALSTAR M034         
1 25962U 99062B   24228.92834215 -.00000094  00000+0 -20481-3 0  9994
2 25962  51.9870  84.8745 0013564 182.0631 190.7904 11.79430664102376
GLOBALSTAR M029         
1 25963U 99062C   24228.65348522 -.00000062  00000+0  30296-3 0  9995
2 25963  51.9779 202.0290 0002468 241.6704 289.4447 11.99881958132490
GLOBALSTAR M061         
1 25964U 99062D   24228.87177044 -.00000030  00000+0  81960-3 0  9998
2 25964  51.9774 265.0124 0006122 113.0945  57.7122 11.76763745 85234
